XRISM                   
1 57800U 23137A   24128.79559954  .00005929  00000+0  45090-3 0  9991
2 57800  31.0032 269.6380 0009724 166.7815 193.3077 15.00663168 36534
